OBJECT_NAME,OBJECT_ID,EPOCH,MEAN_MOTION,ECCENTRICITY,INCLINATION,RA_OF_ASC_NODE,ARG_OF_PERICENTER,MEAN_ANOMALY,EPHEMERIS_TYPE,CLASSIFICATION_TYPE,NORAD_CAT_ID,ELEMENT_SET_NO,REV_AT_EPOCH,BSTAR,MEAN_MOTION_DOT,MEAN_MOTION_DDOT
SL-16 R/B,1994-077B,2026-06-20T07:12:52.372224,14.15573502,.00030565,70.9814,136.6122,325.7412,34.3513,0,U,23405,999,63075,.15097931E-3,.248E-5,0
ARIANE 40+ R/B,1995-021B,2026-06-20T02:29:31.666272,14.39834739,.00066334,98.4410,241.1366,184.6288,194.1030,0,U,23561,999,63398,.73132953E-4,.186E-5,0
SL-16 R/B,1995-058B,2026-06-19T17:55:58.124928,14.15510012,.00139266,71.0224,325.9831,316.9641,43.0392,0,U,23705,999,58229,.14880395E-3,.244E-5,0
SL-16 R/B,1996-051B,2026-06-19T20:44:22.040736,14.12446718,.00157062,70.7644,318.9830,332.9211,27.1087,0,U,24298,999,53607,.90399134E-4,.118E-5,0
ORBVIEW 2 (SEASTAR),1997-037A,2026-06-19T21:03:48.265344,14.35554402,.00032479,98.8691,337.9712,110.8263,249.3269,0,U,24883,999,52313,.72443313E-4,.162E-5,0
SL-16 R/B,1998-043G,2026-06-19T21:19:50.215296,14.26068998,.00109456,98.8364,125.0713,79.3660,280.8751,0,U,25400,999,45355,.33421059E-4,.35E-6,0
SL-16 R/B,1998-045B,2026-06-19T20:23:00.162816,14.16202419,.00092598,71.0116,326.7305,238.3201,121.7020,0,U,25407,999,44156,-.5138972E-4,-.15E-5,0
ISS (ZARYA),1998-067A,2026-06-20T03:45:31.104864,15.49327998,.00045551,51.6329,285.3962,207.7610,152.3136,0,U,25544,999,57221,.16345057E-3,.8669E-4,0
CZ-4B R/B,1999-025C,2026-06-20T02:15:54.793152,14.18283895,.00379734,98.6481,212.8597,51.5021,335.5311,0,U,25732,999,40268,.3339061E-4,.27E-6,0
OKEAN-O,1999-039A,2026-06-20T02:50:49.396128,14.80470388,.00015334,97.9314,229.8828,71.4936,288.6442,0,U,25860,999,44954,.64556824E-4,.442E-5,0
SL-16 R/B,1999-039B,2026-06-20T03:18:15.106176,14.81847518,.00134121,97.9836,229.9923,286.3985,73.5753,0,U,25861,999,45203,.49919599E-4,.341E-5,0
DELTA 2 R/B,1999-041E,2026-06-20T05:15:22.324896,14.12019876,.05008493,51.7649,251.6856,290.9795,63.8252,0,U,25876,999,37751,.89757322E-4,.321E-5,0
HELIOS 1B,1999-064A,2026-06-20T06:31:31.745280,14.88013372,.00025499,98.1613,76.5010,86.9560,273.1947,0,U,25977,999,70051,.11553082E-3,.1002E-4,0
TERRA,1999-068A,2026-06-20T05:43:07.823136,14.61105119,.00018268,97.9454,220.6636,179.4678,252.6566,0,U,25994,999,41005,.64371704E-4,.272E-5,0
SL-16 R/B,2000-006B,2026-06-20T05:52:02.904384,14.15834664,.00157132,71.0017,242.1969,18.3539,341.8148,0,U,26070,999,36307,.94717197E-4,.139E-5,0
TITAN 4B R/B,2000-047B,2026-06-20T05:44:35.364480,15.10211995,.00458603,67.9885,111.9821,283.8561,75.7489,0,U,26474,999,40839,.15396957E-3,.2444E-4,0
ENVISAT,2002-009A,2026-06-20T07:51:36.328320,14.39065385,.00013919,98.3835,122.5759,89.3403,70.3632,0,U,27386,999,27393,.32227229E-4,.57E-6,0
IDEFIX & ARIANE 42P R/B,2002-021B,2026-06-20T06:37:12.654624,14.31083325,.00106369,98.5942,108.7256,243.7967,116.2123,0,U,27422,999,25869,.76421356E-4,.158E-5,0
AQUA,2002-022A,2026-06-20T06:41:15.887040,14.62161924,.00009872,98.4278,140.6233,55.8208,48.3059,0,U,27424,999,28372,.12075821E-3,.558E-5,0
CZ-4B R/B,2002-024C,2026-06-20T01:29:22.244064,14.14564725,.0051216,98.8698,223.8636,92.2459,290.3260,0,U,27432,999,24371,.33553087E-4,.21E-6,0
MIDORI II (ADEOS-II),2002-056A,2026-06-20T06:54:54.869184,14.29351018,.00021726,98.7878,130.5743,72.6716,287.4703,0,U,27597,999,22495,.91241737E-4,.187E-5,0
H-2A R/B,2002-056E,2026-06-20T07:28:01.670016,14.33823198,.00693248,98.3312,127.8718,215.1320,306.4084,0,U,27601,999,22881,.66809261E-4,.149E-5,0
CZ-4B R/B,2003-049C,2026-06-19T23:33:46.120320,14.55101685,.00468972,98.6895,169.9395,279.8037,79.7865,0,U,28059,999,20147,.59455912E-4,.208E-5,0
CZ-2C R/B,2004-012C,2026-06-20T04:50:20.276448,15.79516887,.00098016,97.7079,247.2165,270.9770,89.0373,0,U,28222,999,22037,.50848341E-3,.92955E-3,0
SL-16 R/B,2004-021B,2026-06-20T06:32:33.999936,14.14607323,.00071443,71.0005,17.2138,250.8793,109.1556,0,U,28353,999,13734,-.64309181E-4,-.171E-5,0
CZ-4B R/B,2004-035C,2026-06-20T01:47:12.118848,15.30660838,.00295826,97.3363,204.1154,327.3147,32.6262,0,U,28415,999,19556,.20985986E-3,.6224E-4,0
CZ-2C R/B,2004-046B,2026-06-20T06:38:23.335872,14.27027075,.01386429,98.1943,79.8645,211.0678,148.2252,0,U,28480,999,12313,.32120404E-4,.45E-6,0
ARIANE 5 R/B,2004-049H,2026-06-19T11:42:29.250720,14.85451455,.00843341,98.2722,342.8294,22.0227,338.4576,0,U,28499,999,16090,.53703399E-4,.428E-5,0
CZ-2D R/B,2005-024B,2026-06-20T00:34:58.242144,15.69825717,.00029046,97.3481,190.5942,47.7196,312.4312,0,U,28738,999,15578,.43298778E-3,.51696E-3,0
ALOS (DAICHI),2006-002A,2026-06-19T21:08:56.579424,14.70054880,.00013473,98.1324,126.4401,56.3855,303.7479,0,U,28931,999,8849,.13731807E-3,.775E-5,0
