{
  "version": 1,
  "fetchedAt": "2026-06-20T14:26:57.371Z",
  "source": "celestrak-gp",
  "counts": {
    "station": 24,
    "satellite": 520,
    "debris": 250
  },
  "objects": [
    {
      "id": "25544",
      "name": "ISS (ZARYA)",
      "displayName": "国际空间站 ISS",
      "noradId": 25544,
      "line1": "1 25544U 98067A   26171.15661001  .00008669  00000+0  16345-3 0  9997",
      "line2": "2 25544  51.6329 285.3962 0004555 207.7610 152.3136 15.49327998572210",
      "category": "station",
      "highlight": true,
      "operator": "NASA/Roscosmos/ESA/JAXA/CSA"
    },
    {
      "id": "23405",
      "name": "SL-16 R/B",
      "noradId": 23405,
      "line1": "1 23405U 94077B   26171.30060616  .00000248  00000+0  15098-3 0  9999",
      "line2": "2 23405  70.9814 136.6122 0003056 325.7412  34.3513 14.15573502630757",
      "category": "satellite"
    },
    {
      "id": "23561",
      "name": "ARIANE 40+ R/B",
      "noradId": 23561,
      "line1": "1 23561U 95021B   26171.10383873  .00000186  00000+0  73133-4 0  9999",
      "line2": "2 23561  98.4410 241.1366 0006633 184.6288 194.1030 14.39834739633981",
      "category": "satellite"
    },
    {
      "id": "23705",
      "name": "SL-16 R/B",
      "noradId": 23705,
      "line1": "1 23705U 95058B   26170.74720052  .00000244  00000+0  14880-3 0  9990",
      "line2": "2 23705  71.0224 325.9831 0013926 316.9641  43.0392 14.15510012582294",
      "category": "satellite"
    },
    {
      "id": "24298",
      "name": "SL-16 R/B",
      "noradId": 24298,
      "line1": "1 24298U 96051B   26170.86414399  .00000118  00000+0  90399-4 0  9999",
      "line2": "2 24298  70.7644 318.9830 0015706 332.9211  27.1087 14.12446718536071",
      "category": "satellite"
    },
    {
      "id": "24883",
      "name": "ORBVIEW 2 (SEASTAR)",
      "noradId": 24883,
      "line1": "1 24883U 97037A   26170.87764196  .00000162  00000+0  72443-4 0  9997",
      "line2": "2 24883  98.8691 337.9712 0003247 110.8263 249.3269 14.35554402523139",
      "category": "satellite"
    },
    {
      "id": "25400",
      "name": "SL-16 R/B",
      "noradId": 25400,
      "line1": "1 25400U 98043G   26170.88877564  .00000035  00000+0  33421-4 0  9998",
      "line2": "2 25400  98.8364 125.0713 0010945  79.3660 280.8751 14.26068998453556",
      "category": "satellite"
    },
    {
      "id": "25407",
      "name": "SL-16 R/B",
      "noradId": 25407,
      "line1": "1 25407U 98045B   26170.84930744 -.00000150  00000+0 -51390-4 0  9998",
      "line2": "2 25407  71.0116 326.7305 0009259 238.3201 121.7020 14.16202419441569",
      "category": "satellite"
    },
    {
      "id": "25732",
      "name": "CZ-4B R/B",
      "noradId": 25732,
      "line1": "1 25732U 99025C   26171.09438418  .00000027  00000+0  33391-4 0  9999",
      "line2": "2 25732  98.6481 212.8597 0037973  51.5021 335.5311 14.18283895402684",
      "category": "satellite"
    },
    {
      "id": "25860",
      "name": "OKEAN-O",
      "noradId": 25860,
      "line1": "1 25860U 99039A   26171.11862727  .00000442  00000+0  64557-4 0  9992",
      "line2": "2 25860  97.9314 229.8828 0001533  71.4936 288.6442 14.80470388449540",
      "category": "satellite"
    },
    {
      "id": "25861",
      "name": "SL-16 R/B",
      "noradId": 25861,
      "line1": "1 25861U 99039B   26171.13767484  .00000341  00000+0  49920-4 0  9994",
      "line2": "2 25861  97.9836 229.9923 0013412 286.3985  73.5753 14.81847518452035",
      "category": "satellite"
    },
    {
      "id": "25876",
      "name": "DELTA 2 R/B",
      "noradId": 25876,
      "line1": "1 25876U 99041E   26171.21900839  .00000321  00000+0  89757-4 0  9995",
      "line2": "2 25876  51.7649 251.6856 0500849 290.9795  63.8252 14.12019876377510",
      "category": "satellite"
    },
    {
      "id": "25977",
      "name": "HELIOS 1B",
      "noradId": 25977,
      "line1": "1 25977U 99064A   26171.27189520  .00001002  00000+0  11553-3 0  9999",
      "line2": "2 25977  98.1613  76.5010 0002549  86.9560 273.1947 14.88013372700516",
      "category": "satellite"
    },
    {
      "id": "25994",
      "name": "TERRA",
      "noradId": 25994,
      "line1": "1 25994U 99068A   26171.23828499  .00000272  00000+0  64372-4 0  9999",
      "line2": "2 25994  97.9454 220.6636 0001826 179.4678 252.6566 14.61105119410054",
      "category": "satellite"
    },
    {
      "id": "26070",
      "name": "SL-16 R/B",
      "noradId": 26070,
      "line1": "1 26070U 00006B   26171.24447806  .00000139  00000+0  94717-4 0  9997",
      "line2": "2 26070  71.0017 242.1969 0015713  18.3539 341.8148 14.15834664363072",
      "category": "satellite"
    },
    {
      "id": "26474",
      "name": "TITAN 4B R/B",
      "noradId": 26474,
      "line1": "1 26474U 00047B   26171.23929820  .00002444  00000+0  15397-3 0  9997",
      "line2": "2 26474  67.9885 111.9821 0045860 283.8561  75.7489 15.10211995408395",
      "category": "satellite"
    },
    {
      "id": "27386",
      "name": "ENVISAT",
      "noradId": 27386,
      "line1": "1 27386U 02009A   26171.32750380  .00000057  00000+0  32227-4 0  9993",
      "line2": "2 27386  98.3835 122.5759 0001391  89.3403  70.3632 14.39065385273935",
      "category": "satellite"
    },
    {
      "id": "27422",
      "name": "IDEFIX & ARIANE 42P R/B",
      "noradId": 27422,
      "line1": "1 27422U 02021B   26171.27584091  .00000158  00000+0  76421-4 0  9992",
      "line2": "2 27422  98.5942 108.7256 0010636 243.7967 116.2123 14.31083325258695",
      "category": "satellite"
    },
    {
      "id": "27424",
      "name": "AQUA",
      "noradId": 27424,
      "line1": "1 27424U 02022A   26171.27865610  .00000558  00000+0  12076-3 0  9993",
      "line2": "2 27424  98.4278 140.6233 0000987  55.8208  48.3059 14.62161924283727",
      "category": "satellite"
    },
    {
      "id": "27432",
      "name": "CZ-4B R/B",
      "noradId": 27432,
      "line1": "1 27432U 02024C   26171.06206301  .00000021  00000+0  33553-4 0  9996",
      "line2": "2 27432  98.8698 223.8636 0051216  92.2459 290.3260 14.14564725243712",
      "category": "satellite"
    },
    {
      "id": "27597",
      "name": "MIDORI II (ADEOS-II)",
      "noradId": 27597,
      "line1": "1 27597U 02056A   26171.28813506  .00000187  00000+0  91242-4 0  9990",
      "line2": "2 27597  98.7878 130.5743 0002172  72.6716 287.4703 14.29351018224950",
      "category": "satellite"
    },
    {
      "id": "27601",
      "name": "H-2A R/B",
      "noradId": 27601,
      "line1": "1 27601U 02056E   26171.31113044  .00000149  00000+0  66809-4 0  9999",
      "line2": "2 27601  98.3312 127.8718 0069324 215.1320 306.4084 14.33823198228814",
      "category": "satellite"
    },
    {
      "id": "28059",
      "name": "CZ-4B R/B",
      "noradId": 28059,
      "line1": "1 28059U 03049C   26170.98178380  .00000208  00000+0  59456-4 0  9992",
      "line2": "2 28059  98.6895 169.9395 0046897 279.8037  79.7865 14.55101685201475",
      "category": "satellite"
    },
    {
      "id": "28222",
      "name": "CZ-2C R/B",
      "noradId": 28222,
      "line1": "1 28222U 04012C   26171.20162357  .00092955  00000+0  50848-3 0  9993",
      "line2": "2 28222  97.7079 247.2165 0009801 270.9770  89.0373 15.79516887220375",
      "category": "satellite"
    },
    {
      "id": "28353",
      "name": "SL-16 R/B",
      "noradId": 28353,
      "line1": "1 28353U 04021B   26171.27261574 -.00000171  00000+0 -64309-4 0  9995",
      "line2": "2 28353  71.0005  17.2138 0007144 250.8793 109.1556 14.14607323137344",
      "category": "satellite"
    },
    {
      "id": "28415",
      "name": "CZ-4B R/B",
      "noradId": 28415,
      "line1": "1 28415U 04035C   26171.07444582  .00006224  00000+0  20986-3 0  9994",
      "line2": "2 28415  97.3363 204.1154 0029582 327.3147  32.6262 15.30660838195560",
      "category": "satellite"
    },
    {
      "id": "28480",
      "name": "CZ-2C R/B",
      "noradId": 28480,
      "line1": "1 28480U 04046B   26171.27665898  .00000045  00000+0  32120-4 0  9994",
      "line2": "2 28480  98.1943  79.8645 0138642 211.0678 148.2252 14.27027075123135",
      "category": "satellite"
    },
    {
      "id": "28499",
      "name": "ARIANE 5 R/B",
      "noradId": 28499,
      "line1": "1 28499U 04049H   26170.48783855  .00000428  00000+0  53703-4 0  9998",
      "line2": "2 28499  98.2722 342.8294 0084334  22.0227 338.4576 14.85451455160907",
      "category": "satellite"
    },
    {
      "id": "28738",
      "name": "CZ-2D R/B",
      "noradId": 28738,
      "line1": "1 28738U 05024B   26171.02428521  .00051696  00000+0  43299-3 0  9996",
      "line2": "2 28738  97.3481 190.5942 0002904  47.7196 312.4312 15.69825717155784",
      "category": "satellite"
    },
    {
      "id": "28931",
      "name": "ALOS (DAICHI)",
      "noradId": 28931,
      "line1": "1 28931U 06002A   26170.88121041  .00000775  00000+0  13732-3 0  9999",
      "line2": "2 28931  98.1324 126.4401 0001347  56.3855 303.7479 14.70054880 88496",
      "category": "satellite"
    }
  ]
}